INTELSAT 18 (IS-18) [PM]
1 37834C 11056A   23186.71591435  .00000147  00000-0  00000-0 0  1863
2 37834   0.0025  50.5646 0002232  56.6413 253.9618  1.00269782    14
INTELSAT 18 (IS-18)     
1 37834C 11056A   23187.00000000  .00000140  00000-0  00000-0 0  1873
2 37834   0.0032  54.3891 0002176  53.1468 356.1817  1.00269531    14
INTELSAT 22 (IS-22) [PM]
1 38098C 12011A   23186.63520833  .00000037  00000-0  00000-0 0  1861
2 38098   0.0116  80.7498 0002916  30.7178 112.6670  1.00270552    14
INTELSAT 22 (IS-22)     
1 38098C 12011A   23187.00000000  .00000031  00000-0  00000-0 0  1877
2 38098   0.0126  84.3720 0002919  29.4190 242.0276  1.00270976    15
INTELSAT 22 (IS-22) [PM]
1 38098C 12011A   23191.76069444  .00000031  00000-0  00000-0 0  1917
2 38098   0.0241 286.4379 0002289 198.0678 149.8518  1.00269482    15
INTELSAT 19 (IS-19) [PM]
1 38356C 12030A   23185.51666667  .00000036  00000-0  00000-0 0  1859
2 38356   0.0002  30.5125 0003403  75.3413 168.4031  1.00270577    11
INTELSAT 19 (IS-19)     
1 38356C 12030A   23187.00000000  .00000033  00000-0  00000-0 0  1877
2 38356   0.0013  47.1280 0003275  62.3373 340.2506  1.00270494    12
INTELSAT 19 (IS-19) [PM]
1 38356C 12030A   23190.00486111  .00000040  00000-0  00000-0 0  1904
2 38356   0.0072 341.7117 0002914 134.3777 338.3381  1.00271739    18
INTELSAT 20 (IS-20) [PM]
1 38740C 12043A   23186.45618056  .00000058  00000-0  00000-0 0  1868
2 38740   0.0534 212.8709 0001598 127.3586 175.6668  1.00271343    11
INTELSAT 20 (IS-20)     
1 38740C 12043A   23186.90630787  .00000066  00000-0  00000-0 0  1862
2 38740   0.0228 118.0173 0001529  56.3097 144.0606  1.00269308    15
INTELSAT 21 (IS-21) [PM]
1 38749C 12045A   23186.10446759 -.00000241  00000-0  00000-0 0  1865
2 38749   0.0014   5.9467 0002729 102.7227 153.7559  1.00272430    15
INTELSAT 21 (IS-21)     
1 38749C 12045A   23187.00000000 -.00000188  00000-0  00000-0 0  1871
2 38749   0.0004  14.0520 0002633  96.8304 114.8209  1.00271838    19
INTELSAT 23 (IS-23) [PM]
1 38867C 12057A   23183.95833333 -.00003394  00000-0  00000-0 0  1836
2 38867   0.0448 232.7166 0001843 190.8460 149.1473  1.00263241    10
INTELSAT 23 (IS-23)     
1 38867C 12057A   23187.00000000 -.00004706  00000-0  00000-0 0  1875
2 38867   0.0491 220.0704 0001313 209.6017 161.0610  1.00269918    18
INTELSAT 30 (IS-30) [PM]
1 40271C 14062A   23186.29809028 -.00000062  00000-0  00000-0 0  1862
2 40271   0.0528 204.4633 0001906 345.3919 105.4220  1.00271484    15
INTELSAT 30 (IS-30)     
1 40271C 14062A   23186.90630787 -.00000061  00000-0  00000-0 0  1863
2 40271   0.0087  73.1319 0001847  15.6422  66.0612  1.00269700    12
INTELSAT 34 (IS-34)     
1 40874C 15039A   23186.90630787 -.00000207  00000-0  00000-0 0  1869
2 40874   0.0125 332.7052 0000882  52.6781 169.0244  1.00268053    14
INTELSAT 34 (IS-34) [PM]
1 40874C 15039A   23187.36909722 -.00000215  00000-0  00000-0 0  1878
2 40874   0.0453 187.0313 0000724 328.6244 205.8031  1.00271703    13
INTELSAT 31 (IS-31)     
1 41581C 16035A   23186.90630787 -.00000079  00000-0  00000-0 0  1869
2 41581   0.0288 268.8020 0001236 304.4760 301.5674  1.00269132    12
INTELSAT 31 (IS-31) [PM]
1 41581C 16035A   23187.45584491 -.00000065  00000-0  00000-0 0  1876
2 41581   0.0372 178.3212 0001270 202.0557 332.8354  1.00271809    15
INTELSAT 36 (IS-36)     
1 41747C 16053A   23186.90630787  .00000055  00000-0  00000-0 0  1866
2 41747   0.0070  35.6154 0002146 333.7541 309.0204  1.00269590    16
INTELSAT 36 (IS-36) [PM]
1 41747C 16053A   23187.28313657  .00000065  00000-0  00000-0 0  1874
2 41747   0.0471 184.7020 0002174 282.2726 347.4447  1.00270930    18
INTELSAT 33E        [PM]
1 41748C 16053B   23186.77197917  .00000139  00000-0  00000-0 0  1868
2 41748   0.0000  31.2698 0002323  53.0335 177.0858  1.00269711    18
INTELSAT 33E            
1 41748C 16053B   23187.00000000  .00000139  00000-0  00000-0 0  1872
2 41748   0.0006  32.0805 0002265  53.9692 257.6506  1.00270045    10
INTELSAT 33E        [PM]
1 41748C 16053B   23190.83743056  .00000139  00000-0  00000-0 0  1906
2 41748   0.0419 231.8441 0001740 169.6675 247.4328  1.00272010    19
INTELSAT 32E            
1 41945C 17007B   23187.00000000 -.00000190  00000-0  00000-0 0  1879
2 41945   0.0097  74.4488 0000382 345.1791 180.9071  1.00267775    11
INTELSAT 32E        [PM]
1 41945C 17007B   23187.30318287 -.00000179  00000-0  00000-0 0  1878
2 41945   0.0496 205.1649 0000462 290.8481 213.9564  1.00272808    14
INTELSAT 35E        [PM]
1 42818C 17041A   23186.61266204 -.00000148  00000-0  00000-0 0  1865
2 42818   0.0103  81.3827 0002083  20.3993   7.6038  1.00272011    16
INTELSAT 35E            
1 42818C 17041A   23187.00000000 -.00000153  00000-0  00000-0 0  1876
2 42818   0.0109  83.0944 0002068  19.3420 146.7736  1.00271833    18
INTELSAT 37E            
1 42950C 17059A   23187.00000000 -.00000053  00000-0  00000-0 0  1871
2 42950   0.0048  75.1258 0002839  37.5983 152.9985  1.00270113    14
INTELSAT 37E        [PM]
1 42950C 17059A   23190.05763889 -.00003589  00000-0  00000-0 0  1902
2 42950   0.0000   3.8916 0002563 118.8002 166.7794  1.00270178    12
AZERSPACE 2 (IS-38)     
1 43632C 18074A   23186.90630787  .00000227  00000-0  00000-0 0  1867
2 43632   0.0098  75.4632 0001773  38.3312 181.2129  1.00270239    11
HORIZONS-3E             
1 43633C 18074B   23186.90630787  .00000109  00000-0  00000-0 0  1867
2 43633   0.0492 200.0247 0000600  87.1618 131.7146  1.00268681    14
INTELSAT 39 (IS-39)     
1 44476C 19049B   23186.90630787  .00000078  00000-0  00000-0 0  1861
2 44476   0.0000   4.4801 0000703  11.5639 295.7928  1.00269311    15
INTELSAT 39 (IS-39) [PM]
1 44476C 19049B   23188.30486111  .00000122  00000-0  00000-0 0  1889
2 44476   0.0414 195.6153 0000749 263.9231 357.1490  1.00270447    17
GALAXY 30 (G-30)    [PM]
1 46114C 20056C   23186.83541667 -.00004456  00000-0  00000-0 0  1867
2 46114   0.0000   8.6874 0002243  89.7405   0.8684  1.00271002    15
GALAXY 30 (G-30)        
1 46114C 20056C   23187.00000000  .00000122  00000-0  00000-0 0  1874
2 46114   0.0001  28.5768 0002216  69.6543  60.4775  1.00270811    19
GALAXY 33 (G-33)    [PM]
1 54026C 22128A   23186.71096065  .00000165  00000-0  00000-0 0  1866
2 54026   0.0015  36.9528 0002186  67.7227 301.7143  1.00269194    18
GALAXY 33 (G-33)        
1 54026C 22128A   23187.00000000  .00000170  00000-0  00000-0 0  1870
2 54026   0.0009  40.9339 0002129  63.3205  46.4730  1.00268855    19
GALAXY 34 (G-34)    [PM]
1 54027C 22128B   23185.84652778  .00000141  00000-0  00000-0 0  1852
2 54027   0.0001  21.4964 0001858  82.8982 353.9206  1.00270323    13
GALAXY 34 (G-34)        
1 54027C 22128B   23187.00000000  .00000150  00000-0  00000-0 0  1879
2 54027   0.0001  49.9662 0001750  57.1921  47.5415  1.00270340    19
GALAXY 34 (G-34)    [PM]
1 54027C 22128B   23187.36458333  .00000146  00000-0  00000-0 0  1879
2 54027   0.0001  52.7696 0001712  56.3468 177.1961  1.00271497    13
GALAXY 31 (G-31)    [PM]
1 54243C 22153A   23186.85673611  .00000117  00000-0  00000-0 0  1865
2 54243   0.0001  50.9612 0001441 209.0141 211.0238  1.00270083    10
GALAXY 31 (G-31)        
1 54243C 22153A   23186.90630787  .00000069  00000-0  00000-0 0  1864
2 54243   0.0000   0.4231 0001449 260.0657 228.4049  1.00270000    14
GALAXY 31 (G-31)    [PM]
1 54243C 22153A   23190.30155093  .00000101  00000-0  00000-0 0  1907
2 54243   0.0302 256.2981 0001904   2.5460  15.6747  1.00271665    18
GALAXY 32 (G-32)        
1 54244C 22153B   23186.90630787 -.00000085  00000-0  00000-0 0  1864
2 54244   0.0051  27.3775 0002057  31.6878  99.8199  1.00271167    16
GALAXY 32 (G-32)    [PM]
1 54244C 22153B   23186.98179398 -.00000127  00000-0  00000-0 0  1865
2 54244   0.0053  27.9402 0002061  31.1166 127.0777  1.00271148    16
GALAXY 35 (G-35)        
1 54741C 22170A   23186.90630787 -.00000068  00000-0  00000-0 0  1866
2 54741   0.0014  63.0580 0000515  73.7910  19.9493  1.00270590    18
GALAXY 35 (G-35)    [PM]
1 54741C 22170A   23190.72263889 -.00004326  00000-0  00000-0 0  1902
2 54741   0.0027 347.1236 0000425 214.9242 252.3822  1.00271464    13
GALAXY 36 (G-36)    [PM]
1 54742C 22170B   23186.11998843 -.00000113  00000-0  00000-0 0  1861
2 54742   0.0463 204.8585 0003844 254.6504 137.5313  1.00271160    16
GALAXY 36 (G-36)        
1 54742C 22170B   23186.90630787 -.00000093  00000-0  00000-0 0  1865
2 54742   0.0022  72.2055 0003749  28.4639  60.2216  1.00270905    16
GALAXY 36 (G-36)    [PM]
1 54742C 22170B   23190.21261574 -.00004050  00000-0  00000-0 0  1900
2 54742   0.0040 332.8309 0003371 131.6296 169.9532  1.00271312    11
INTELSAT 40E        [PM]
1 56174C 23052A   23185.94722222 -.00000150  00000-0  00000-0 0  1858
2 56174   0.0097  98.1984 0002456  28.0027  46.4815  1.00270696    16
INTELSAT 40E            
1 56174C 23052A   23186.90630787 -.00000084  00000-0  00000-0 0  1866
2 56174   0.0428 199.4422 0002433 289.5352  29.9203  1.00270450    11
